{
  "type": "FeatureCollection",
  "features": [
    {
      "type": "Feature",
      "properties": {
        "norad_id": 30073,
        "name": "FENGYUN 1C DEB",
        "group": "fengyun-1c-debris",
        "lat": 16.705745493422558,
        "lon": -43.598519475507075,
        "alt_km": 833.218239867223,
        "timestamp": "2025-12-12T03:50:52.690810+00:00",
        "meta_object_name": "FENGYUN 1C DEB",
        "meta_object_id": "1999-025QA",
        "meta_epoch": "2025-12-11T11:25:17.472288",
        "meta_mean_motion": 14.18655826,
        "meta_eccentricity": 0.00536532,
        "meta_inclination": 99.4119,
        "meta_ra_of_asc_node": 318.5291,
        "meta_arg_of_pericenter": 284.431,
        "meta_mean_anomaly": 198.3989,
        "meta_ephemeris_type": 0,
        "meta_classification_type": "U",
        "meta_norad_cat_id": 30073,
        "meta_element_set_no": 999,
        "meta_rev_at_epoch": 96907,
        "meta_bstar": 0.0028434945,
        "meta_mean_motion_dot": 5.935e-05,
        "meta_mean_motion_ddot": 0,
        "tle_line1": "1 30073U 99025QA  25345.47589667  .00005935  00000+0  28435-2 0  9994",
        "tle_line2": "2 30073  99.4119 318.5291 0053653 284.4310 198.3989 14.18655826969075"
      },
      "geometry": {
        "type": "Point",
        "coordinates": [
          -43.598519475507075,
          16.705745493422558
        ]
      }
    },
    {
      "type": "Feature",
      "properties": {
        "norad_id": 30074,
        "name": "FENGYUN 1C DEB",
        "group": "fengyun-1c-debris",
        "lat": 36.06336887866868,
        "lon": -120.88997771103043,
        "alt_km": 777.7717427169182,
        "timestamp": "2025-12-12T03:50:52.690820+00:00",
        "meta_object_name": "FENGYUN 1C DEB",
        "meta_object_id": "1999-025QB",
        "meta_epoch": "2025-12-11T15:16:32.849184",
        "meta_mean_motion": 14.1284524,
        "meta_eccentricity": 0.00973758,
        "meta_inclination": 99.129,
        "meta_ra_of_asc_node": 51.8516,
        "meta_arg_of_pericenter": 154.9948,
        "meta_mean_anomaly": 205.5986,
        "meta_ephemeris_type": 0,
        "meta_classification_type": "U",
        "meta_norad_cat_id": 30074,
        "meta_element_set_no": 999,
        "meta_rev_at_epoch": 96646,
        "meta_bstar": 0.0022488838,
        "meta_mean_motion_dot": 4.33e-05,
        "meta_mean_motion_ddot": 0,
        "tle_line1": "1 30074U 99025QB  25345.63649131  .00004330  00000+0  22489-2 0  9997",
        "tle_line2": "2 30074  99.1290  51.8516 0097375 154.9948 205.5986 14.12845240966460"
      },
      "geometry": {
        "type": "Point",
        "coordinates": [
          -120.88997771103043,
          36.06336887866868
        ]
      }
    },
    {
      "type": "Feature",
      "properties": {
        "norad_id": 30075,
        "name": "FENGYUN 1C DEB",
        "group": "fengyun-1c-debris",
        "lat": -75.28467065812436,
        "lon": 75.381838182836,
        "alt_km": 941.2021281121533,
        "timestamp": "2025-12-12T03:50:52.690830+00:00",
        "meta_object_name": "FENGYUN 1C DEB",
        "meta_object_id": "1999-025QC",
        "meta_epoch": "2025-12-11T09:34:47.157888",
        "meta_mean_motion": 13.92532874,
        "meta_eccentricity": 0.00910134,
        "meta_inclination": 99.3621,
        "meta_ra_of_asc_node": 35.6991,
        "meta_arg_of_pericenter": 180.6622,
        "meta_mean_anomaly": 245.9359,
        "meta_ephemeris_type": 0,
        "meta_classification_type": "U",
        "meta_norad_cat_id": 30075,
        "meta_element_set_no": 999,
        "meta_rev_at_epoch": 96046,
        "meta_bstar": 0.00012927536,
        "meta_mean_motion_dot": 1.27e-06,
        "meta_mean_motion_ddot": 0,
        "tle_line1": "1 30075U 99025QC  25345.39915692  .00000127  00000+0  12928-3 0  9997",
        "tle_line2": "2 30075  99.3621  35.6991 0091013 180.6622 245.9359 13.92532874960465"
      },
      "geometry": {
        "type": "Point",
        "coordinates": [
          75.381838182836,
          -75.28467065812436
        ]
      }
    },
    {
      "type": "Feature",
      "properties": {
        "norad_id": 30076,
        "name": "FENGYUN 1C DEB",
        "group": "fengyun-1c-debris",
        "lat": 7.851978812721731,
        "lon": -28.382501787488277,
        "alt_km": 970.534893604372,
        "timestamp": "2025-12-12T03:50:52.690840+00:00",
        "meta_object_name": "FENGYUN 1C DEB",
        "meta_object_id": "1999-025QD",
        "meta_epoch": "2025-12-11T12:40:30.876096",
        "meta_mean_motion": 13.76289686,
        "meta_eccentricity": 0.01756982,
        "meta_inclination": 99.2381,
        "meta_ra_of_asc_node": 332.29,
        "meta_arg_of_pericenter": 97.0578,
        "meta_mean_anomaly": 22.3766,
        "meta_ephemeris_type": 0,
        "meta_classification_type": "U",
        "meta_norad_cat_id": 30076,
        "meta_element_set_no": 999,
        "meta_rev_at_epoch": 94877,
        "meta_bstar": 0.00041628392,
        "meta_mean_motion_dot": 4.13e-06,
        "meta_mean_motion_ddot": 0,
        "tle_line1": "1 30076U 99025QD  25345.52813514  .00000413  00000+0  41628-3 0  9990",
        "tle_line2": "2 30076  99.2381 332.2900 0175698  97.0578  22.3766 13.76289686948778"
      },
      "geometry": {
        "type": "Point",
        "coordinates": [
          -28.382501787488277,
          7.851978812721731
        ]
      }
    },
    {
      "type": "Feature",
      "properties": {
        "norad_id": 30077,
        "name": "FENGYUN 1C DEB",
        "group": "fengyun-1c-debris",
        "lat": -48.97144553274688,
        "lon": 171.62989660773653,
        "alt_km": 864.2626996766012,
        "timestamp": "2025-12-12T03:50:52.690850+00:00",
        "meta_object_name": "FENGYUN 1C DEB",
        "meta_object_id": "1999-025QE",
        "meta_epoch": "2025-12-11T12:10:42.314880",
        "meta_mean_motion": 14.07079171,
        "meta_eccentricity": 0.00204031,
        "meta_inclination": 98.7583,
        "meta_ra_of_asc_node": 1.202,
        "meta_arg_of_pericenter": 267.7812,
        "meta_mean_anomaly": 256.6245,
        "meta_ephemeris_type": 0,
        "meta_classification_type": "U",
        "meta_norad_cat_id": 30077,
        "meta_element_set_no": 999,
        "meta_rev_at_epoch": 97095,
        "meta_bstar": 0.00015972195,
        "meta_mean_motion_dot": 2.25e-06,
        "meta_mean_motion_ddot": 0,
        "tle_line1": "1 30077U 99025QE  25345.50743420  .00000225  00000+0  15972-3 0  9991",
        "tle_line2": "2 30077  98.7583   1.2020 0020403 267.7812 256.6245 14.07079171970953"
      },
      "geometry": {
        "type": "Point",
        "coordinates": [
          171.62989660773653,
          -48.97144553274688
        ]
      }
    },
    {
      "type": "Feature",
      "properties": {
        "norad_id": 30078,
        "name": "FENGYUN 1C DEB",
        "group": "fengyun-1c-debris",
        "lat": 80.3280862967877,
        "lon": -4.793417657947402,
        "alt_km": 843.7272770930331,
        "timestamp": "2025-12-12T03:50:52.690860+00:00",
        "meta_object_name": "FENGYUN 1C DEB",
        "meta_object_id": "1999-025QF",
        "meta_epoch": "2025-12-11T03:57:32.479200",
        "meta_mean_motion": 14.23120166,
        "meta_eccentricity": 0.00526467,
        "meta_inclination": 98.8317,
        "meta_ra_of_asc_node": 60.0269,
        "meta_arg_of_pericenter": 285.0562,
        "meta_mean_anomaly": 104.1661,
        "meta_ephemeris_type": 0,
        "meta_classification_type": "U",
        "meta_norad_cat_id": 30078,
        "meta_element_set_no": 999,
        "meta_rev_at_epoch": 97091,
        "meta_bstar": 0.001922421,
        "meta_mean_motion_dot": 4.359e-05,
        "meta_mean_motion_ddot": 0,
        "tle_line1": "1 30078U 99025QF  25345.16495925  .00004359  00000+0  19224-2 0  9993",
        "tle_line2": "2 30078  98.8317  60.0269 0052646 285.0562 104.1661 14.23120166970911"
      },
      "geometry": {
        "type": "Point",
        "coordinates": [
          -4.793417657947402,
          80.3280862967877
        ]
      }
    },
    {
      "type": "Feature",
      "properties": {
        "norad_id": 30079,
        "name": "FENGYUN 1C DEB",
        "group": "fengyun-1c-debris",
        "lat": -47.205805393713604,
        "lon": -148.1925711801095,
        "alt_km": 879.081804509965,
        "timestamp": "2025-12-12T03:50:52.690870+00:00",
        "meta_object_name": "FENGYUN 1C DEB",
        "meta_object_id": "1999-025QG",
        "meta_epoch": "2025-12-11T15:29:38.848128",
        "meta_mean_motion": 14.00793264,
        "meta_eccentricity": 0.00846105,
        "meta_inclination": 99.0356,
        "meta_ra_of_asc_node": 41.195,
        "meta_arg_of_pericenter": 302.0864,
        "meta_mean_anomaly": 212.3888,
        "meta_ephemeris_type": 0,
        "meta_classification_type": "U",
        "meta_norad_cat_id": 30079,
        "meta_element_set_no": 999,
        "meta_rev_at_epoch": 96522,
        "meta_bstar": 0.00027640387,
        "meta_mean_motion_dot": 3.8e-06,
        "meta_mean_motion_ddot": 0,
        "tle_line1": "1 30079U 99025QG  25345.64558852  .00000380  00000+0  27640-3 0  9998",
        "tle_line2": "2 30079  99.0356  41.1950 0084610 302.0864 212.3888 14.00793264965227"
      },
      "geometry": {
        "type": "Point",
        "coordinates": [
          -148.1925711801095,
          -47.205805393713604
        ]
      }
    }
  ]
}